{
  "type": "FeatureCollection",
  "features": [
    {
      "type": "Feature",
      "properties": {
        "norad_id": 37836,
        "name": "EUTELSAT 16A",
        "group": "eutelsat",
        "lat": -0.07247282384608329,
        "lon": -137.70009707533035,
        "alt_km": 35764.724473199254,
        "timestamp": "2025-12-02T08:59:32.390966+00:00",
        "meta_object_name": "EUTELSAT 16A",
        "meta_object_id": "2011-057A",
        "meta_epoch": "2025-12-02T03:35:11.864832",
        "meta_mean_motion": 1.00273296,
        "meta_eccentricity": 0.0006055,
        "meta_inclination": 0.0596,
        "meta_ra_of_asc_node": 344.3363,
        "meta_arg_of_pericenter": 273.4192,
        "meta_mean_anomaly": 243.3046,
        "meta_ephemeris_type": 0,
        "meta_classification_type": "U",
        "meta_norad_cat_id": 37836,
        "meta_element_set_no": 999,
        "meta_rev_at_epoch": 535,
        "meta_bstar": 0,
        "meta_mean_motion_dot": 1.25e-06,
        "meta_mean_motion_ddot": 0,
        "tle_line1": "1 37836U 11057A   25336.14944288  .00000125  00000+0  00000+0 0  9996",
        "tle_line2": "2 37836   0.0596 344.3363 0006055 273.4192 243.3046  1.00273296  5354"
      },
      "geometry": {
        "type": "Point",
        "coordinates": [
          -137.70009707533035,
          -0.07247282384608329
        ]
      }
    },
    {
      "type": "Feature",
      "properties": {
        "norad_id": 38992,
        "name": "EUTELSAT 21B",
        "group": "eutelsat",
        "lat": -0.08432822865947605,
        "lon": -132.0863950540503,
        "alt_km": 35775.44059036599,
        "timestamp": "2025-12-02T08:59:32.390978+00:00",
        "meta_object_name": "EUTELSAT 21B",
        "meta_object_id": "2012-062B",
        "meta_epoch": "2025-12-02T03:36:49.209120",
        "meta_mean_motion": 1.00270955,
        "meta_eccentricity": 0.0003184,
        "meta_inclination": 0.0687,
        "meta_ra_of_asc_node": 343.1579,
        "meta_arg_of_pericenter": 281.2329,
        "meta_mean_anomaly": 242.673,
        "meta_ephemeris_type": 0,
        "meta_classification_type": "U",
        "meta_norad_cat_id": 38992,
        "meta_element_set_no": 999,
        "meta_rev_at_epoch": 4785,
        "meta_bstar": 0,
        "meta_mean_motion_dot": 1.51e-06,
        "meta_mean_motion_ddot": 0,
        "tle_line1": "1 38992U 12062B   25336.15056955  .00000151  00000+0  00000+0 0  9992",
        "tle_line2": "2 38992   0.0687 343.1579 0003184 281.2329 242.6730  1.00270955 47856"
      },
      "geometry": {
        "type": "Point",
        "coordinates": [
          -132.0863950540503,
          -0.08432822865947605
        ]
      }
    },
    {
      "type": "Feature",
      "properties": {
        "norad_id": 39020,
        "name": "EUTELSAT 70B",
        "group": "eutelsat",
        "lat": -0.07449588705560299,
        "lon": -83.13813060948195,
        "alt_km": 35771.20687969557,
        "timestamp": "2025-12-02T08:59:32.390990+00:00",
        "meta_object_name": "EUTELSAT 70B",
        "meta_object_id": "2012-069A",
        "meta_epoch": "2025-12-02T02:08:07.509120",
        "meta_mean_motion": 1.00271506,
        "meta_eccentricity": 0.0004354,
        "meta_inclination": 0.0627,
        "meta_ra_of_asc_node": 358.6341,
        "meta_arg_of_pericenter": 242.3226,
        "meta_mean_anomaly": 292.7694,
        "meta_ephemeris_type": 0,
        "meta_classification_type": "U",
        "meta_norad_cat_id": 39020,
        "meta_element_set_no": 999,
        "meta_rev_at_epoch": 4753,
        "meta_bstar": 0,
        "meta_mean_motion_dot": -2.3e-07,
        "meta_mean_motion_ddot": 0,
        "tle_line1": "1 39020U 12069A   25336.08897580 -.00000023  00000+0  00000+0 0  9990",
        "tle_line2": "2 39020   0.0627 358.6341 0004354 242.3226 292.7694  1.00271506 47538"
      },
      "geometry": {
        "type": "Point",
        "coordinates": [
          -83.13813060948195,
          -0.07449588705560299
        ]
      }
    },
    {
      "type": "Feature",
      "properties": {
        "norad_id": 39122,
        "name": "EUTELSAT 117 WEST A",
        "group": "eutelsat",
        "lat": 0.02948242415633183,
        "lon": 89.5341254732601,
        "alt_km": 35798.52127238916,
        "timestamp": "2025-12-02T08:59:32.391002+00:00",
        "meta_object_name": "EUTELSAT 117 WEST A",
        "meta_object_id": "2013-012A",
        "meta_epoch": "2025-12-02T02:57:25.216992",
        "meta_mean_motion": 1.00271769,
        "meta_eccentricity": 0.000309,
        "meta_inclination": 0.0337,
        "meta_ra_of_asc_node": 50.9241,
        "meta_arg_of_pericenter": 200.5803,
        "meta_mean_anomaly": 107.2915,
        "meta_ephemeris_type": 0,
        "meta_classification_type": "U",
        "meta_norad_cat_id": 39122,
        "meta_element_set_no": 999,
        "meta_rev_at_epoch": 4645,
        "meta_bstar": 0,
        "meta_mean_motion_dot": 8e-08,
        "meta_mean_motion_ddot": 0,
        "tle_line1": "1 39122U 13012A   25336.12320853  .00000008  00000+0  00000+0 0  9993",
        "tle_line2": "2 39122   0.0337  50.9241 0003090 200.5803 107.2915  1.00271769 46450"
      },
      "geometry": {
        "type": "Point",
        "coordinates": [
          89.5341254732601,
          0.02948242415633183
        ]
      }
    },
    {
      "type": "Feature",
      "properties": {
        "norad_id": 39163,
        "name": "EUTELSAT 7B",
        "group": "eutelsat",
        "lat": -0.061100815152987216,
        "lon": -146.7014599995253,
        "alt_km": 35788.41284329249,
        "timestamp": "2025-12-02T08:59:32.391013+00:00",
        "meta_object_name": "EUTELSAT 7B",
        "meta_object_id": "2013-022A",
        "meta_epoch": "2025-12-02T03:32:42.105120",
        "meta_mean_motion": 1.00272256,
        "meta_eccentricity": 0.0004285,
        "meta_inclination": 0.0675,
        "meta_ra_of_asc_node": 356.6053,
        "meta_arg_of_pericenter": 314.7831,
        "meta_mean_anomaly": 180.0536,
        "meta_ephemeris_type": 0,
        "meta_classification_type": "U",
        "meta_norad_cat_id": 39163,
        "meta_element_set_no": 999,
        "meta_rev_at_epoch": 4598,
        "meta_bstar": 0,
        "meta_mean_motion_dot": 6.9e-07,
        "meta_mean_motion_ddot": 0,
        "tle_line1": "1 39163U 13022A   25336.14770955  .00000069  00000+0  00000+0 0  9990",
        "tle_line2": "2 39163   0.0675 356.6053 0004285 314.7831 180.0536  1.00272256 45980"
      },
      "geometry": {
        "type": "Point",
        "coordinates": [
          -146.7014599995253,
          -0.061100815152987216
        ]
      }
    },
    {
      "type": "Feature",
      "properties": {
        "norad_id": 39612,
        "name": "EXPRESS-AT1",
        "group": "eutelsat",
        "lat": -0.01503419529195107,
        "lon": -97.64876964151972,
        "alt_km": 35787.36905310909,
        "timestamp": "2025-12-02T08:59:32.391033+00:00",
        "meta_object_name": "EXPRESS-AT1",
        "meta_object_id": "2014-010A",
        "meta_epoch": "2025-12-02T03:46:40.765728",
        "meta_mean_motion": 1.0026954,
        "meta_eccentricity": 3.96e-05,
        "meta_inclination": 0.0131,
        "meta_ra_of_asc_node": 275.0216,
        "meta_arg_of_pericenter": 233.472,
        "meta_mean_anomaly": 35.4546,
        "meta_ephemeris_type": 0,
        "meta_classification_type": "U",
        "meta_norad_cat_id": 39612,
        "meta_element_set_no": 999,
        "meta_rev_at_epoch": 4284,
        "meta_bstar": 0,
        "meta_mean_motion_dot": 1e-06,
        "meta_mean_motion_ddot": 0,
        "tle_line1": "1 39612U 14010A   25336.15741627  .00000100  00000+0  00000+0 0  9998",
        "tle_line2": "2 39612   0.0131 275.0216 0000396 233.4720  35.4546  1.00269540 42842"
      },
      "geometry": {
        "type": "Point",
        "coordinates": [
          -97.64876964151972,
          -0.01503419529195107
        ]
      }
    },
    {
      "type": "Feature",
      "properties": {
        "norad_id": 39613,
        "name": "EXPRESS-AT2",
        "group": "eutelsat",
        "lat": 0.02721256037222638,
        "lon": -13.786564110460848,
        "alt_km": 35783.32039146308,
        "timestamp": "2025-12-02T08:59:32.391045+00:00",
        "meta_object_name": "EXPRESS-AT2",
        "meta_object_id": "2014-010B",
        "meta_epoch": "2025-12-02T04:10:27.757632",
        "meta_mean_motion": 1.00272559,
        "meta_eccentricity": 0.0001203,
        "meta_inclination": 0.0171,
        "meta_ra_of_asc_node": 300.3195,
        "meta_arg_of_pericenter": 346.5253,
        "meta_mean_anomaly": 346.9177,
        "meta_ephemeris_type": 0,
        "meta_classification_type": "U",
        "meta_norad_cat_id": 39613,
        "meta_element_set_no": 999,
        "meta_rev_at_epoch": 4252,
        "meta_bstar": 0,
        "meta_mean_motion_dot": -2.6e-06,
        "meta_mean_motion_ddot": 0,
        "tle_line1": "1 39613U 14010B   25336.17393238 -.00000260  00000+0  00000+0 0  9990",
        "tle_line2": "2 39613   0.0171 300.3195 0001203 346.5253 346.9177  1.00272559 42529"
      },
      "geometry": {
        "type": "Point",
        "coordinates": [
          -13.786564110460848,
          0.02721256037222638
        ]
      }
    }
  ]
}